ONEWEB-0029             
1 45445U 20020X   25295.81033029  .00000288  00000+0  77537-3 0  9994
2 45445  87.8839  68.3325 0001516 100.6487 259.4812 13.11419244271543
ONEWEB-0068             
1 45446U 20020Y   25295.41259837 -.00000392  00000+0 -11430-2 0  9995
2 45446  87.8838  68.4003 0001432 101.8654 258.2635 13.11418692271437
ONEWEB-0046             
1 45447U 20020Z   25295.40425160 -.00000549  00000+0 -15860-2 0  9994
2 45447  87.8833  68.4109 0001359  91.5866 268.5418 13.11418519271440
ONEWEB-0063             
1 45448U 20020AA  25295.43310110  .00000463  00000+0  12716-2 0  9996
2 45448  87.8835  68.4030 0001608  89.0709 271.0603 13.11417825271535
ONEWEB-0019             
1 45449U 20020AB  25295.40680536 -.00000476  00000+0 -13796-2 0  9991
2 45449  87.8829  68.4226 0001627 100.6354 259.4957 13.11417300271375
ONEWEB-0094             
1 45450U 20020AC  25295.37084351 -.00000212  00000+0 -57867-3 0  9998
2 45450  87.9127  53.1259 0002529 101.7128 258.4287 13.17647937274992
ONEWEB-0087             
1 45451U 20020AD  25295.82461600  .00000561  00000+0  15484-2 0  9998
2 45451  87.8844  68.2782 0001378 106.3182 253.8098 13.11417199271476
ONEWEB-0082             
1 45452U 20020AE  25295.43987975  .00000617  00000+0  17056-2 0  9993
2 45452  87.8843  68.3803 0001450 103.2428 256.8861 13.11417525271510
ONEWEB-0050             
1 45453U 20020AF  25295.66668980 -.00004190  00000+0 -44693-3 0  9991
2 45453  88.8217 265.6625 0005677  99.0785  28.7483 14.89161256  5787
ONEWEB-0034             
1 45454U 20020AG  25295.38476546 -.00000051  00000+0 -18056-3 0  9992
2 45454  87.8834  68.4103 0001592  98.9386 261.1922 13.11415874271428
ONEWEB-0060             
1 45455U 20020AH  25295.43224394  .00000486  00000+0  13361-2 0  9994
2 45455  87.8826  68.4235 0001277 146.1976 213.9234 13.11419213271384
ONEWEB-0086             
1 45456U 20020AJ  25295.41104584 -.00000359  00000+0 -10502-2 0  9996
2 45456  87.8837  68.4013 0001862 122.1238 238.0071 13.11419000271444
ONEWEB-0088             
1 45457U 20020AK  25295.38902109 -.00000154  00000+0 -47137-3 0  9990
2 45457  87.8845  68.3559 0001527  96.7990 263.3311 13.11415862271379
ONEWEB-0102             
1 47258U 20100A   25295.57977598  .00000482  00000+0  13041-2 0  9993
2 47258  87.8969  37.8871 0001896 100.2343 259.9000 13.12444633233561
ONEWEB-0109             
1 47259U 20100B   25295.74035682  .00000416  00000+0  11212-2 0  9997
2 47259  87.8970  37.8231 0001859 102.4458 257.6878 13.12444972233412
ONEWEB-0110             
1 47260U 20100C   25295.53759257 -.00000212  00000+0 -62330-3 0  9991
2 47260  87.8967  37.8468 0001751 110.7885 249.3431 13.12441567233554
ONEWEB-0111             
1 47261U 20100D   25295.64466025  .00000127  00000+0  31875-3 0  9995
2 47261  87.8969  37.8432 0001778 101.2881 258.8448 13.12445322233408
ONEWEB-0114             
1 47262U 20100E   25295.52300363  .00000161  00000+0  41160-3 0  9991
2 47262  87.8971  37.8617 0001993  96.6813 263.4543 13.12440496233346
ONEWEB-0117             
1 47263U 20100F   25295.51488609  .00000403  00000+0  10859-2 0  9990
2 47263  87.8970  37.8612 0001721 104.0545 256.0775 13.12444440233355
ONEWEB-0118             
1 47264U 20100G   25295.54732065 -.00000396  00000+0 -11371-2 0  9995
2 47264  87.8968  37.8537 0001827  90.5061 269.6277 13.12441175233559
ONEWEB-0119             
1 47265U 20100H   25295.57490326  .00000307  00000+0  81673-3 0  9993
2 47265  87.8965  37.8852 0001819 102.3762 257.7571 13.12445901233532
ONEWEB-0120             
1 47266U 20100J   25295.52152028  .00000353  00000+0  94645-3 0  9997
2 47266  87.8970  37.8983 0001857  99.7326 260.4012 13.12441211233554
ONEWEB-0121             
1 47267U 20100K   25295.73873486  .00000426  00000+0  11492-2 0  9998
2 47267  87.8967  37.8208 0001709 106.8829 253.2487 13.12444920233494
ONEWEB-0122             
1 47268U 20100L   25295.58126001  .00000458  00000+0  12387-2 0  9995
2 47268  87.8967  37.8547 0001873 104.3984 255.7352 13.12443979233387
ONEWEB-0123             
1 47269U 20100M   25295.57653674  .00000341  00000+0  91153-3 0  9996
2 47269  87.8965  37.8831 0001680  98.5732 261.5587 13.12444621233529
ONEWEB-0124             
1 47270U 20100N   25295.56517674 -.00000004  00000+0 -45864-4 0  9993
2 47270  87.8970  37.8887 0001582 104.9206 255.2098 13.12445149233407
ONEWEB-0125             
1 47271U 20100P   25295.54245596 -.00000288  00000+0 -83706-3 0  9993
2 47271  87.8969  37.8554 0001501  95.4631 264.6669 13.12441628233466
ONEWEB-0126             
1 47272U 20100Q   25295.56370059 -.00000042  00000+0 -15244-3 0  9999
2 47272  87.8968  37.8748 0001830  99.8816 260.2519 13.12444378233538
ONEWEB-0127             
1 47273U 20100R   25295.75820176 -.00000041  00000+0 -15003-3 0  9993
2 47273  87.8970  37.8470 0001872 102.5142 257.6196 13.12440150233584
ONEWEB-0128             
1 47274U 20100S   25295.70466399 -.00000592  00000+0 -16817-2 0  9996
2 47274  87.8962  37.8787 0001857 108.7584 251.3746 13.12442375233592
ONEWEB-0129             
1 47275U 20100T   25295.53111193 -.00000084  00000+0 -26947-3 0  9999
2 47275  87.8970  37.8612 0002866  93.3962 266.7494 13.12441186233509
ONEWEB-0130             
1 47276U 20100U   25295.71115948 -.00000203  00000+0 -59856-3 0  9990
2 47276  87.8967  37.8215 0001829 104.4540 255.6791 13.12444993233493
ONEWEB-0131             
1 47277U 20100V   25295.70791762 -.00000316  00000+0 -91451-3 0  9996
2 47277  87.8967  37.8522 0001725 104.3268 255.8053 13.12444785233533
ONEWEB-0132             
1 47278U 20100W   25295.73711627  .00000469  00000+0  12681-2 0  9996
2 47278  87.8968  37.8482 0001742 103.4519 256.6804 13.12445012233434
ONEWEB-0133             
1 47279U 20100X   25295.52448841  .00000154  00000+0  39369-3 0  9993
2 47279  87.8960  37.8557 0001722 107.5512 252.5805 13.12442958233562
ONEWEB-0134             
1 47280U 20100Y   25295.72251708  .00000201  00000+0  52301-3 0  9995
2 47280  87.8968  37.8077 0001989 106.6305 253.5042 13.12444944233565
ONEWEB-0135             
1 47281U 20100Z   25295.54084199 -.00000232  00000+0 -68028-3 0  9993
2 47281  87.8968  37.8841 0001988 113.1340 246.9998 13.12443970233560
ONEWEB-0136             
1 47282U 20100AA  25295.56030832 -.00000177  00000+0 -52718-3 0  9998
2 47282  87.8969  37.8490 0002153 107.5996 252.5368 13.12445761233497
ONEWEB-0137             
1 47283U 20100AB  25295.51813961  .00000414  00000+0  11149-2 0  9990
2 47283  87.8970  37.8633 0001784  94.9194 265.2139 13.12441245233396
ONEWEB-0138             
1 47284U 20100AC  25295.57329233  .00000323  00000+0  86273-3 0  9991
2 47284  87.8967  37.8617 0001920 104.4713 255.6628 13.12444235233489
ONEWEB-0139             
1 47285U 20100AD  25295.53611182 -.00000245  00000+0 -71551-3 0  9993
2 47285  87.8966  37.8592 0001768 102.1944 257.9383 13.12440720233558
ONEWEB-0140             
1 47286U 20100AE  25295.56680044  .00000095  00000+0  22816-3 0  9991
2 47286  87.8967  37.8388 0001857 103.5880 256.5456 13.12445084233527
ONEWEB-0141             
1 47287U 20100AF  25295.38336713 -.00000238  00000+0 -69584-3 0  9997
2 47287  87.8961  37.8877 0001756  90.2309 269.9021 13.12440743233489
ONEWEB-0142             
1 47288U 20100AG  25295.67723178  .00000091  00000+0  21737-3 0  9998
2 47288  87.8968  37.8493 0001969  91.7443 268.3911 13.12443578233516
ONEWEB-0143             
1 47289U 20100AH  25295.53435390 -.00000194  00000+0 -57567-3 0  9996
2 47289  87.8971  37.8736 0001682 102.1708 257.9609 13.12442879233470
ONEWEB-0144             
1 47290U 20100AJ  25295.73551409  .00000414  00000+0  11166-2 0  9997
2 47290  87.8960  37.8057 0002076 100.1688 259.9674 13.12447440233427
ONEWEB-0145             
1 47291U 20100AK  25295.70629264 -.00000361  00000+0 -10378-2 0  9997
2 47291  87.8970  37.8459 0001804 101.7503 258.3828 13.12444157233613
ONEWEB-0146             
1 47292U 20100AL  25295.55057279 -.00000391  00000+0 -11222-2 0  9994
2 47292  87.8969  37.8635 0001425 108.5381 251.5902 13.12444510233505
ONEWEB-0147             
1 47293U 20100AM  25295.51651817  .00000446  00000+0  12041-2 0  9998
2 47293  87.8969  37.8485 0001967 107.8202 252.3141 13.12441295233392
ONEWEB-0115             
1 48042U 21025A   25295.50161010  .00000423  00000+0  11234-2 0  9996
2 48042  87.9046   7.4483 0001769 100.5104 259.6224 13.13471952222398
ONEWEB-0152             
1 48043U 21025B   25295.43898501  .00000226  00000+0  58326-3 0  9996
2 48043  87.9037   7.4727 0001744 103.9162 256.2161 13.13470312222341
ONEWEB-0153             
1 48044U 21025C   25295.18844822  .00000425  00000+0  11293-2 0  9998
2 48044  87.9042   7.5241 0001857  97.7011 262.4330 13.13470985222307
ONEWEB-0154             
1 48045U 21025D   25295.64211095  .00000208  00000+0  53580-3 0  9995
2 48045  87.9043   7.4307 0001861 103.1407 256.9930 13.13472783222321
ONEWEB-0116             
1 48046U 21025E   25295.45252179 -.00000113  00000+0 -34319-3 0  9999
2 48046  87.9047   7.4516 0001716 103.1561 256.9760 13.13471117222442
ONEWEB-0150             
1 48047U 21025F   25295.65736229  .00000353  00000+0  93060-3 0  9997
2 48047  87.9046   7.4059 0001771  94.0125 266.1207 13.13470586222368
ONEWEB-0107             
1 48048U 21025G   25295.43050435  .00000183  00000+0  46634-3 0  9998
2 48048  87.9046   7.4483 0002105  96.7603 263.3766 13.13469643222318
ONEWEB-0101             
1 48049U 21025H   25295.46946080 -.00000218  00000+0 -63074-3 0  9990
2 48049  87.9037   7.4771 0001972 102.0107 258.1243 13.13471478222298
ONEWEB-0113             
1 48050U 21025J   25295.66668980  .00025847  00000+0  70031-1 0  9996
2 48050  87.9048   7.3734 0001571  98.8021 302.1159 13.13971195  5153
ONEWEB-0112             
1 48051U 21025K   25295.43560039  .00000241  00000+0  62638-3 0  9995
2 48051  87.9047   7.4441 0001798  97.7152 262.4181 13.13471253222382
